OBJECT_NAME,OBJECT_ID,EPOCH,MEAN_MOTION,ECCENTRICITY,INCLINATION,RA_OF_ASC_NODE,ARG_OF_PERICENTER,MEAN_ANOMALY,EPHEMERIS_TYPE,CLASSIFICATION_TYPE,NORAD_CAT_ID,ELEMENT_SET_NO,REV_AT_EPOCH,BSTAR,MEAN_MOTION_DOT,MEAN_MOTION_DDOT
STARLINK-4684,2022-104H,2024-11-28T19:35:49.967520,15.08806534,.00009,53.2160,175.5160,89.4610,270.6485,0,U,53595,999,12500,-.43801E-4,-.984E-5,0
STARLINK-4668,2022-104J,2024-11-28T20:07:50.142720,15.34218141,.0003247,53.2096,153.2804,206.6525,153.4311,0,U,53596,999,12560,.22278E-2,.75218E-3,0
STARLINK-4676,2022-104L,2024-11-27T23:54:00.874080,15.08845947,.000105,53.2159,178.9254,119.4104,240.6993,0,U,53598,999,12516,.21075E-4,.48E-6,0
STARLINK-4677,2022-104N,2024-11-28T23:40:59.812896,15.08844918,.0001519,53.2154,175.1413,86.7135,273.4031,0,U,53600,999,12502,.10594E-3,.1399E-4,0
STARLINK-4675,2022-104P,2024-11-28T22:25:23.904480,15.08812480,.0001695,53.2162,174.8301,86.3217,273.7969,0,U,53601,999,12461,-.31698E-4,-.792E-5,0
STARLINK-4648,2022-104Q,2024-11-28T06:40:06.806784,15.08845159,.000134,53.2151,172.8638,86.6536,273.4609,0,U,53602,999,12527,.14709E-3,.2054E-4,0
STARLINK-4692,2022-104R,2024-11-28T21:30:24.812064,15.08843199,.0001484,53.2153,170.3198,82.6593,277.4568,0,U,53603,999,12536,.66933E-4,.778E-5,0
STARLINK-4690,2022-104S,2024-11-28T22:23:21.718464,15.08840131,.0001704,53.2141,169.8387,98.2908,261.8278,0,U,53604,999,12468,.12852E-3,.1758E-4,0
STARLINK-4693,2022-104T,2024-11-28T22:14:43.554336,15.08844464,.0001178,53.2149,174.7854,106.2743,253.8378,0,U,53605,999,12461,.17969E-3,.2573E-4,0
STARLINK-4590,2022-104U,2024-11-28T13:26:11.403744,15.08840915,.0001406,53.2156,166.7659,104.9174,255.1974,0,U,53606,999,12469,.1122E-3,.1498E-4,0
STARLINK-4591,2022-104V,2024-11-28T19:39:05.901120,15.08837274,.0001598,53.2148,170.5476,81.2387,278.8786,0,U,53607,999,12466,-.12806E-3,-.2325E-4,0
STARLINK-4647,2022-104W,2024-11-28T21:33:43.957152,15.08844229,.0001461,53.2142,165.3272,77.6954,282.4202,0,U,53608,999,12531,.7999E-4,.985E-5,0
STARLINK-4660,2022-104X,2024-11-28T12:29:49.031232,15.08838189,.0001371,53.2144,171.5370,88.4585,271.6564,0,U,53609,999,12531,.90176E-4,.1147E-4,0
STARLINK-4610,2022-104Y,2024-11-28T21:24:29.943072,15.08839090,.0001635,53.2153,165.2879,81.7876,278.3301,0,U,53610,999,12531,.6016E-4,.67E-5,0
STARLINK-4650,2022-104Z,2024-11-28T20:48:25.054560,15.30191185,.0007103,53.1933,149.7543,139.1280,221.0255,0,U,53611,999,12565,.20705E-2,.61491E-3,0
STARLINK-4658,2022-104AA,2024-11-28T22:53:11.497920,15.08846649,.0001316,53.2158,164.9611,91.2680,268.8463,0,U,53612,999,12475,.86642E-4,.1092E-4,0
STARLINK-4655,2022-104AB,2024-11-28T21:28:25.821984,15.08836837,.0001282,53.2158,165.3021,89.2157,270.8982,0,U,53613,999,12474,.78735E-4,.965E-5,0
STARLINK-4605,2022-104AE,2024-11-28T19:38:25.951488,15.08829990,.0001436,53.2161,155.3702,87.6628,272.4529,0,U,53616,999,12487,.90019E-4,.1145E-4,0
STARLINK-4601,2022-104AF,2024-11-29T04:00:01.999584,15.57015609,.0001096,53.2090,160.2935,62.4450,113.0236,0,U,53617,999,12483,.14777E-1,.119156E-1,0
STARLINK-4604,2022-104AG,2024-11-28T20:56:35.159424,15.08843029,.000105,53.2139,165.1692,86.9970,273.1143,0,U,53618,999,12473,.32385E-3,.487E-4,0
STARLINK-4609,2022-104AH,2024-11-28T22:42:39.150144,15.08803052,.0001768,53.2164,164.9236,77.9460,282.1731,0,U,53619,999,12475,-.23922E-3,-.4089E-4,0
STARLINK-4615,2022-104AJ,2024-11-28T20:45:58.401792,15.08848909,.0001401,53.2153,165.1235,86.1497,273.9656,0,U,53620,999,12474,.98132E-4,.1275E-4,0
STARLINK-4608,2022-104AK,2024-11-28T22:37:18.659712,15.08834940,.0001327,53.2140,164.8932,77.3766,282.7375,0,U,53621,999,12475,.17561E-3,.2508E-4,0
STARLINK-4568,2022-104AL,2024-11-28T21:49:32.937600,15.08833763,.0001422,53.2174,164.6953,87.0806,273.0349,0,U,53622,999,12475,.44712E-4,.424E-5,0
STARLINK-4573,2022-104AM,2024-11-28T20:51:17.317152,15.08841213,.0001385,53.2153,165.1471,85.2017,274.9134,0,U,53623,999,12542,.58991E-4,.651E-5,0
STARLINK-4596,2022-104AN,2024-11-28T01:30:44.146944,15.08843533,.0001239,53.2135,168.6454,87.9580,272.1554,0,U,53624,999,12530,.10858E-3,.1441E-4,0
STARLINK-4603,2022-104AP,2024-11-29T04:00:01.999584,15.55495360,.0001014,53.2143,160.2491,56.6474,145.5292,0,U,53625,999,12483,.15639E-1,.1192508E-1,0
STARLINK-4554,2022-104AQ,2024-11-28T06:00:58.515264,15.08842232,.0001254,53.2159,167.6900,83.8172,276.2963,0,U,53626,999,12534,.118E-3,.1591E-4,0
STARLINK-4595,2022-104AR,2024-11-28T06:11:35.624544,15.08857854,.0002045,53.2174,167.7315,100.6762,259.4460,0,U,53627,999,12465,-.31092E-4,-.783E-5,0
STARLINK-4600,2022-104AS,2024-11-28T21:44:13.469280,15.08836760,.0001751,53.2166,164.6674,79.1752,280.9437,0,U,53628,999,12475,.2965E-3,.4433E-4,0
