STARLINK-4684           
1 53595U 22104H   24333.81655055 -.00000984  00000+0 -43801-4 0  9998
2 53595  53.2160 175.5160 0000900  89.4610 270.6485 15.08806534125008
STARLINK-4668           
1 53596U 22104J   24333.83877480  .00075218  00000+0  22278-2 0  9992
2 53596  53.2096 153.2804 0003247 206.6525 153.4311 15.34218141125602
STARLINK-4676           
1 53598U 22104L   24332.99584345  .00000048  00000+0  21075-4 0  9990
2 53598  53.2159 178.9254 0001050 119.4104 240.6993 15.08845947125168
STARLINK-4677           
1 53600U 22104N   24333.98680339  .00001399  00000+0  10594-3 0  9997
2 53600  53.2154 175.1413 0001519  86.7135 273.4031 15.08844918125022
STARLINK-4675           
1 53601U 22104P   24333.93430445 -.00000792  00000+0 -31698-4 0  9991
2 53601  53.2162 174.8301 0001695  86.3217 273.7969 15.08812480124612
STARLINK-4648           
1 53602U 22104Q   24333.27785656  .00002054  00000+0  14709-3 0  9990
2 53602  53.2151 172.8638 0001340  86.6536 273.4609 15.08845159125276
STARLINK-4692           
1 53603U 22104R   24333.89612051  .00000778  00000+0  66933-4 0  9995
2 53603  53.2153 170.3198 0001484  82.6593 277.4568 15.08843199125361
STARLINK-4690           
1 53604U 22104S   24333.93289026  .00001758  00000+0  12852-3 0  9992
2 53604  53.2141 169.8387 0001704  98.2908 261.8278 15.08840131124682
STARLINK-4693           
1 53605U 22104T   24333.92689299  .00002573  00000+0  17969-3 0  9998
2 53605  53.2149 174.7854 0001178 106.2743 253.8378 15.08844464124615
STARLINK-4590           
1 53606U 22104U   24333.55985421  .00001498  00000+0  11220-3 0  9993
2 53606  53.2156 166.7659 0001406 104.9174 255.1974 15.08840915124697
STARLINK-4591           
1 53607U 22104V   24333.81881830 -.00002325  00000+0 -12806-3 0  9995
2 53607  53.2148 170.5476 0001598  81.2387 278.8786 15.08837274124668
STARLINK-4647           
1 53608U 22104W   24333.89842543  .00000985  00000+0  79990-4 0  9998
2 53608  53.2142 165.3272 0001461  77.6954 282.4202 15.08844229125312
STARLINK-4660           
1 53609U 22104X   24333.52070638  .00001147  00000+0  90176-4 0  9997
2 53609  53.2144 171.5370 0001371  88.4585 271.6564 15.08838189125312
STARLINK-4610           
1 53610U 22104Y   24333.89201323  .00000670  00000+0  60160-4 0  9996
2 53610  53.2153 165.2879 0001635  81.7876 278.3301 15.08839090125315
STARLINK-4650           
1 53611U 22104Z   24333.86695665  .00061491  00000+0  20705-2 0  9997
2 53611  53.1933 149.7543 0007103 139.1280 221.0255 15.30191185125650
STARLINK-4658           
1 53612U 22104AA  24333.95360530  .00001092  00000+0  86642-4 0  9993
2 53612  53.2158 164.9611 0001316  91.2680 268.8463 15.08846649124755
STARLINK-4655           
1 53613U 22104AB  24333.89474331  .00000965  00000+0  78735-4 0  9994
2 53613  53.2158 165.3021 0001282  89.2157 270.8982 15.08836837124740
STARLINK-4605           
1 53616U 22104AE  24333.81835592  .00001145  00000+0  90019-4 0  9999
2 53616  53.2161 155.3702 0001436  87.6628 272.4529 15.08829990124879
STARLINK-4601           
1 53617U 22104AF  24334.16668981  .01191560  00000+0  14777-1 0  9991
2 53617  53.2090 160.2935 0001096  62.4450 113.0236 15.57015609124839
STARLINK-4604           
1 53618U 22104AG  24333.87262916  .00004870  00000+0  32385-3 0  9990
2 53618  53.2139 165.1692 0001050  86.9970 273.1143 15.08843029124731
STARLINK-4609           
1 53619U 22104AH  24333.94628646 -.00004089  00000+0 -23922-3 0  9996
2 53619  53.2164 164.9236 0001768  77.9460 282.1731 15.08803052124758
STARLINK-4615           
1 53620U 22104AJ  24333.86525928  .00001275  00000+0  98132-4 0  9996
2 53620  53.2153 165.1235 0001401  86.1497 273.9656 15.08848909124749
STARLINK-4608           
1 53621U 22104AK  24333.94257708  .00002508  00000+0  17561-3 0  9990
2 53621  53.2140 164.8932 0001327  77.3766 282.7375 15.08834940124751
STARLINK-4568           
1 53622U 22104AL  24333.90940900  .00000424  00000+0  44712-4 0  9994
2 53622  53.2174 164.6953 0001422  87.0806 273.0349 15.08833763124755
STARLINK-4573           
1 53623U 22104AM  24333.86895043  .00000651  00000+0  58991-4 0  9993
2 53623  53.2153 165.1471 0001385  85.2017 274.9134 15.08841213125422
STARLINK-4596           
1 53624U 22104AN  24333.06301096  .00001441  00000+0  10858-3 0  9993
2 53624  53.2135 168.6454 0001239  87.9580 272.1554 15.08843533125304
STARLINK-4603           
1 53625U 22104AP  24334.16668981  .01192508  00000+0  15639-1 0  9991
2 53625  53.2143 160.2491 0001014  56.6474 145.5292 15.55495360124831
STARLINK-4554           
1 53626U 22104AQ  24333.25067726  .00001591  00000+0  11800-3 0  9999
2 53626  53.2159 167.6900 0001254  83.8172 276.2963 15.08842232125344
STARLINK-4595           
1 53627U 22104AR  24333.25805121 -.00000783  00000+0 -31092-4 0  9999
2 53627  53.2174 167.7315 0002045 100.6762 259.4460 15.08857854124659
STARLINK-4600           
1 53628U 22104AS  24333.90571145  .00004433  00000+0  29650-3 0  9998
2 53628  53.2166 164.6674 0001751  79.1752 280.9437 15.08836760124754
